*******************************************************************************
 Revised: Dec 14, 2018            Larissa  / (Neptune)                      807

 SATELLITE PHYSICAL PROPERTIES:
  Radius (km)             =  104 x 89 (+-7) Density (g cm^-3)   =              
  Mass (10^20 kg )        =                 Geometric Albedo    =  0.06 
                                            V(1,0)              = +7.3 

 SATELLITE ORBITAL DATA:
  Semi-major axis, a (km) = 73.548(10^3)    Orbital period      = 0.554654 d
  Eccentricity, e         = 0.0             Rotational period   = 
  Inclination, i  (deg)   = 0.20
*******************************************************************************
 
 
*******************************************************************************
Ephemeris / WWW_USER Thu Jun 18 11:44:01 2020 Pasadena, USA      / Horizons
*******************************************************************************
Target body name: Larissa (807)                   {source: nep090_merged_DE435}
Center body name: Solar System Barycenter (0)     {source: DE431mx}
Center-site name: BODY CENTER
*******************************************************************************
Start time      : A.D. 2000-Jun-05 00:00:00.0000 TDB
Stop  time      : A.D. 2040-May-26 00:00:00.0000 TDB
Step-size       : 14400 minutes
*******************************************************************************
Center geodetic : 0.00000000,0.00000000,0.0000000 {E-lon(deg),Lat(deg),Alt(km)}
Center cylindric: 0.00000000,0.00000000,0.0000000 {E-lon(deg),Dxy(km),Dz(km)}
Center radii    : (undefined)                                                  
Output units    : AU-D
Output type     : GEOMETRIC cartesian states
Output format   : 3 (position, velocity, LT, range, range-rate)
Reference frame : Ecliptic of J2000.0
*******************************************************************************
JDTDB
   X     Y     Z
   VX    VY    VZ
   LT    RG    RR
*******************************************************************************
$$SOE
2465220.500000000 = A.D. 2037-Jun-11 00:00:00.0000 TDB 
 X = 2.671156632343150E+01 Y = 1.323505403619349E+01 Z =-8.882999462578625E-01
 VX=-1.619363810662820E-03 VY= 8.031387069139178E-03 VZ= 1.938979628286047E-03
 LT= 1.722483355735156E-01 RG= 2.982387479162564E+01 RR= 2.055993828574349E-03
2465230.500000000 = A.D. 2037-Jun-21 00:00:00.0000 TDB 
 X = 2.669740637048688E+01 Y = 1.326344692921363E+01 Z =-8.885217725181318E-01
 VX=-2.565244577485546E-03 VY= 7.779450680135631E-03 VZ= 2.237896016203060E-03
 LT= 1.722479961660022E-01 RG= 2.982381602503641E+01 RR= 1.096725346853942E-03
2465240.500000000 = A.D. 2037-Jul-01 00:00:00.0000 TDB 
 X = 2.668320089735100E+01 Y = 1.329181848676424E+01 Z =-8.887387221937691E-01
 VX=-3.473497843738631E-03 VY= 7.361476904254927E-03 VZ= 2.461080308512775E-03
 LT= 1.722475607364955E-01 RG= 2.982374063275442E+01 RR= 9.979018704976873E-05
2465250.500000000 = A.D. 2037-Jul-11 00:00:00.0000 TDB 
 X = 2.666895243133079E+01 Y = 1.332016731698776E+01 Z =-8.889525269053136E-01
 VX=-4.313398164785564E-03 VY= 6.789767426086587E-03 VZ= 2.599426933534051E-03
 LT= 1.722470390679345E-01 RG= 2.982365030864305E+01 RR=-9.020941158374262E-04
2465260.500000000 = A.D. 2037-Jul-21 00:00:00.0000 TDB 
 X = 2.665466135732732E+01 Y = 1.334849190723177E+01 Z =-8.891629840680447E-01
 VX=-5.054982764489664E-03 VY= 6.084931753143335E-03 VZ= 2.648306716624024E-03
 LT= 1.722464291824009E-01 RG= 2.982354471023635E+01 RR=-1.873317485812200E-03
2465270.500000000 = A.D. 2037-Jul-31 00:00:00.0000 TDB 
 X = 2.664032845303561E+01 Y = 1.337678851203262E+01 Z =-8.893721346783428E-01
 VX=-5.674621389816634E-03 VY= 5.271183239362877E-03 VZ= 2.607666840907638E-03
 LT= 1.722457256944835E-01 RG= 2.982342290507930E+01 RR=-2.782425771821903E-03
2465280.500000000 = A.D. 2037-Aug-10 00:00:00.0000 TDB 
 X = 2.662595749739162E+01 Y = 1.340505569763978E+01 Z =-8.895827225101126E-01
 VX=-6.152411866480487E-03 VY= 4.374119574700927E-03 VZ= 2.478270644937981E-03
 LT= 1.722449447272404E-01 RG= 2.982328768479288E+01 RR=-3.600648198774922E-03
2465290.500000000 = A.D. 2037-Aug-20 00:00:00.0000 TDB 
 X = 2.661155101349303E+01 Y = 1.343329395665967E+01 Z =-8.897948238384895E-01
 VX=-6.470522189436155E-03 VY= 3.424243163062756E-03 VZ= 2.263367927965042E-03
 LT= 1.722441004119488E-01 RG= 2.982314149613184E+01 RR=-4.298866349240532E-03
2465300.500000000 = A.D. 2037-Aug-30 00:00:00.0000 TDB 
 X = 2.659711002283819E+01 Y = 1.346150154075177E+01 Z =-8.900092569499429E-01
 VX=-6.618399617535120E-03 VY= 2.454695248925927E-03 VZ= 1.971887371929309E-03
 LT= 1.722431934153896E-01 RG= 2.982298445454576E+01 RR=-4.853351184972266E-03
2465310.500000000 = A.D. 2037-Sep-09 00:00:00.0000 TDB 
 X = 2.658263832630554E+01 Y = 1.348967742389113E+01 Z =-8.902288262102338E-01
 VX=-6.592480068347028E-03 VY= 1.496957399220295E-03 VZ= 1.613817449754506E-03
 LT= 1.722422408937384E-01 RG= 2.982281953053436E+01 RR=-5.247280779446373E-03
2465320.500000000 = A.D. 2037-Sep-19 00:00:00.0000 TDB 
 X = 2.656813988781700E+01 Y = 1.351782370681656E+01 Z =-8.904540644235188E-01
 VX=-6.392654566286612E-03 VY= 5.825382363654635E-04 VZ= 1.199811828692395E-03
 LT= 1.722412685728528E-01 RG= 2.982265117839178E+01 RR=-5.466806687778891E-03
2465330.500000000 = A.D. 2037-Sep-29 00:00:00.0000 TDB 
 X = 2.655361586649154E+01 Y = 1.354594122045980E+01 Z =-8.906843913537531E-01
 VX=-6.024731613852393E-03 VY=-2.562683940096273E-04 VZ= 7.447124512816709E-04
 LT= 1.722402842348163E-01 RG= 2.982248074554403E+01 RR=-5.502999925845695E-03
2465340.500000000 = A.D. 2037-Oct-09 00:00:00.0000 TDB 
 X = 2.653906874690575E+01 Y = 1.357402975949369E+01 Z =-8.909216206109628E-01
 VX=-5.502746355228270E-03 VY=-9.916534306567536E-04 VZ= 2.648914607655985E-04
 LT= 1.722393001690653E-01 RG= 2.982231035984103E+01 RR=-5.356207906066122E-03
2465350.500000000 = A.D. 2037-Oct-19 00:00:00.0000 TDB 
 X = 2.652450263200331E+01 Y = 1.360209226266837E+01 Z =-8.911665979431176E-01
 VX=-4.843930552944192E-03 VY=-1.600013467204749E-03 VZ=-2.248096086717947E-04
 LT= 1.722383450626401E-01 RG= 2.982214498828988E+01 RR=-5.031362993775709E-03
2465360.500000000 = A.D. 2037-Oct-29 00:00:00.0000 TDB 
 X = 2.650991876920750E+01 Y = 1.363013196184752E+01 Z =-8.914177253503516E-01
 VX=-4.069299040108626E-03 VY=-2.059420291160444E-03 VZ=-7.080057163442575E-04
 LT= 1.722374333130299E-01 RG= 2.982198712373853E+01 RR=-4.537451777698809E-03
2465370.500000000 = A.D. 2037-Nov-08 00:00:00.0000 TDB 
 X = 2.649531762773239E+01 Y = 1.365814965318563E+01 Z =-8.916751496917227E-01
 VX=-3.206133093953816E-03 VY=-2.354145100114555E-03 VZ=-1.166842265100104E-03
 LT= 1.722365692396687E-01 RG= 2.982183751407380E+01 RR=-3.891790251274656E-03
2465380.500000000 = A.D. 2037-Nov-18 00:00:00.0000 TDB 
 X = 2.648070197757885E+01 Y = 1.368614804090997E+01 Z =-8.919397289118267E-01
 VX=-2.284161359584366E-03 VY=-2.475725784869660E-03 VZ=-1.586875283664259E-03
 LT= 1.722357741543722E-01 RG= 2.982169984932220E+01 RR=-3.116990285316128E-03
2465390.500000000 = A.D. 2037-Nov-28 00:00:00.0000 TDB 
 X = 2.646607279891759E+01 Y = 1.371413167421782E+01 Z =-8.922094838152453E-01
 VX=-1.333199872802513E-03 VY=-2.419187186908824E-03 VZ=-1.954804292425176E-03
 LT= 1.722350646330973E-01 RG= 2.982157699952167E+01 RR=-2.237223121611337E-03
2465400.500000000 = A.D. 2037-Dec-08 00:00:00.0000 TDB 
 X = 2.645142860977844E+01 Y = 1.374210243091492E+01 Z =-8.924827810084495E-01
 VX=-3.859196421349595E-04 VY=-2.185062550168749E-03 VZ=-2.256744857490096E-03
 LT= 1.722344376762326E-01 RG= 2.982146844530563E+01 RR=-1.281673080220053E-03
2465410.500000000 = A.D. 2037-Dec-18 00:00:00.0000 TDB 
 X = 2.643676988869868E+01 Y = 1.377006198886465E+01 Z =-8.927601051081990E-01
 VX= 5.241422163525702E-04 VY=-1.782942575519058E-03 VZ=-2.482673680285500E-03
 LT= 1.722339002122236E-01 RG= 2.982137538629722E+01 RR=-2.842984436241882E-04
2465420.500000000 = A.D. 2037-Dec-28 00:00:00.0000 TDB 
 X = 2.642209705408631E+01 Y = 1.379801454832329E+01 Z =-8.930398610667685E-01
 VX= 1.367583959334531E-03 VY=-1.226509882074913E-03 VZ=-2.626547606644818E-03
 LT= 1.722334652738372E-01 RG= 2.982130007905008E+01 RR= 7.228607256959899E-04
2465430.500000000 = A.D. 2038-Jan-07 00:00:00.0000 TDB 
 X = 2.640740725732720E+01 Y = 1.382596256943564E+01 Z =-8.933192211124140E-01
 VX= 2.116089354252323E-03 VY=-5.326531101810310E-04 VZ=-2.682723405696332E-03
 LT= 1.722331243983496E-01 RG= 2.982124105828900E+01 RR= 1.707256907601585E-03
2465440.500000000 = A.D. 2038-Jan-17 00:00:00.0000 TDB 
 X = 2.639269838448787E+01 Y = 1.385390638689884E+01 Z =-8.935978874219844E-01
 VX= 2.742181292450499E-03 VY= 2.743412706707950E-04 VZ=-2.648126264568590E-03
 LT= 1.722328676984140E-01 RG= 2.982119661207293E+01 RR= 2.633717992825804E-03
2465450.500000000 = A.D. 2038-Jan-27 00:00:00.0000 TDB 
 X = 2.637797005250663E+01 Y = 1.388184850031501E+01 Z =-8.938751521884069E-01
 VX= 3.225216020374549E-03 VY= 1.165733161618042E-03 VZ=-2.525827495447645E-03
 LT= 1.722326999098361E-01 RG= 2.982116756038125E+01 RR= 3.471190622130387E-03
2465460.500000000 = A.D. 2038-Feb-06 00:00:00.0000 TDB 
 X = 2.636321914653426E+01 Y = 1.390979114926453E+01 Z =-8.941480439087844E-01
 VX= 3.550280297169884E-03 VY= 2.113024322595837E-03 VZ=-2.320101198825844E-03
 LT= 1.722326107863674E-01 RG= 2.982115212913100E+01 RR= 4.193770178080025E-03
2465470.500000000 = A.D. 2038-Feb-16 00:00:00.0000 TDB 
 X = 2.634844168606692E+01 Y = 1.393773333196668E+01 Z =-8.944154756386083E-01
 VX= 3.704676673335332E-03 VY= 3.084893477073231E-03 VZ=-2.036121672657766E-03
 LT= 1.722325773248395E-01 RG= 2.982114633544703E+01 RR= 4.776141636751462E-03
